ONEWEB-0709             
1 55172U 23004AJ  25361.15512602  .00000442  00000+0  12116-2 0  9990
2 55172  87.8840  55.3414 0000921  85.7831 274.3402 13.11414268143329
ONEWEB-0710             
1 55173U 23004AK  25361.13242722  .00000051  00000+0  97740-4 0  9996
2 55173  87.9094  40.0786 0001855 103.2867 256.8471 13.17649396144923
ONEWEB-0711             
1 55174U 23004AL  25361.12631492  .00000012  00000+0 -57299-6 0  9997
2 55174  87.8852  55.3222 0002165 121.4956 238.6383 13.11420586143285
ONEWEB-0713             
1 55175U 23004AM  25361.14495985  .00000576  00000+0  15899-2 0  9995
2 55175  87.8846  55.3202 0001955 114.5912 245.5420 13.11416085143275
ONEWEB-0715             
1 55176U 23004AN  25361.13987066  .00000512  00000+0  14080-2 0  9992
2 55176  87.8849  55.3215 0001106 114.6793 245.4450 13.11416638143310
ONEWEB-0716             
1 55177U 23004AP  25361.12566355  .00000045  00000+0  83044-4 0  9995
2 55177  87.9097  40.0797 0001871  91.3355 268.7991 13.17651170144921
ONEWEB-0717             
1 55178U 23004AQ  25361.10878139  .00000063  00000+0  13035-3 0  9992
2 55178  87.9106  40.0555 0001916 119.5366 240.5957 13.17651459144975
ONEWEB-0719             
1 55179U 23004AR  25361.11892859  .00000045  00000+0  82911-4 0  9999
2 55179  87.9105  40.0359 0002000  94.7759 265.3601 13.17648870144921
ONEWEB-0530             
1 55796U 23029A   25361.12253890  .00000086  00000+0  18043-3 0  9997
2 55796  87.9209 308.8007 0002028  92.9535 267.1830 13.20771350138435
ONEWEB-0534             
1 55797U 23029B   25361.10992245  .00000167  00000+0  37764-3 0  9991
2 55797  87.9212 308.8033 0001938  76.6112 283.5237 13.20770843138437
ONEWEB-0556             
1 55798U 23029C   25361.11621929  .00000087  00000+0  18079-3 0  9990
2 55798  87.9216 308.8025 0002801  78.1764 281.9683 13.20773753138433
ONEWEB-0562             
1 55799U 23029D   25361.10360943  .00000065  00000+0  12726-3 0  9995
2 55799  87.9211 308.7869 0002515  95.3078 264.8342 13.20772745138437
ONEWEB-0563             
1 55800U 23029E   25360.87002678  .00000024  00000+0  27948-4 0  9997
2 55800  87.9216 308.8608 0002037  70.1462 289.9890 13.20770815138391
ONEWEB-0564             
1 55801U 23029F   25360.86371235  .00000009  00000+0 -87993-5 0  9996
2 55801  87.9209 308.8379 0001996  89.3570 270.7792 13.20771157138405
ONEWEB-0638             
1 55802U 23029G   25361.13852139  .00000113  00000+0  26939-3 0  9991
2 55802  87.9000 324.0461 0002273  85.2631 274.8758 13.14501474136792
ONEWEB-0639             
1 55803U 23029H   25360.85198430 -.00000039  00000+0 -13053-3 0  9999
2 55803  87.9205 339.2699 0002017  51.8404 308.2910 13.19725052136173
ONEWEB-0640             
1 55804U 23029J   25361.14802987  .00000051  00000+0  10317-3 0  9994
2 55804  87.9001 324.0323 0002572  75.2690 284.8725 13.14501356136815
ONEWEB-0641             
1 55805U 23029K   25360.99887385 -.00000041  00000+0 -13489-3 0  9996
2 55805  87.9213 339.2228 0001762  78.4492 281.6838 13.19725433136200
ONEWEB-0642             
1 55806U 23029L   25360.99413683  .00000019  00000+0  14681-4 0  9992
2 55806  87.9198 339.2455 0001631  54.0911 306.0373 13.19725402136196
ONEWEB-0643             
1 55807U 23029M   25361.19402176  .00000319  00000+0  82614-3 0  9994
2 55807  87.9001 324.0106 0001383  61.5716 298.5553 13.14502001136799
ONEWEB-0644             
1 55808U 23029N   25360.98938457 -.00000016  00000+0 -73000-4 0  9993
2 55808  87.9201 339.2553 0001575  71.8092 288.3212 13.19726600136191
ONEWEB-0645             
1 55809U 23029P   25361.01151824 -.00000053  00000+0 -16499-3 0  9993
2 55809  87.9195 339.2446 0002066  69.6743 290.4612 13.19724990136197
ONEWEB-0646             
1 55810U 23029Q   25361.18052659  .00000063  00000+0  12472-3 0  9995
2 55810  87.9208 339.2037 0001685  75.6356 284.4964 13.19725592136207
ONEWEB-0648             
1 55811U 23029R   25361.16230946 -.00000173  00000+0 -50031-3 0  9998
2 55811  87.9005 323.9780 0002201  55.1756 304.9580 13.14502534136790
ONEWEB-0649             
1 55812U 23029S   25360.90252382  .00000019  00000+0  15057-4 0  9995
2 55812  87.9208 339.2559 0001901  70.7298 289.4040 13.19725725136208
ONEWEB-0650             
1 55813U 23029T   25361.20105817  .00000067  00000+0  13573-3 0  9993
2 55813  87.9209 339.2016 0001737  68.2670 291.8648 13.19724478136217
ONEWEB-0652             
1 55814U 23029U   25361.14327546  .00000028  00000+0  40283-4 0  9998
2 55814  87.9002 324.0017 0001836  87.1367 272.9972 13.14501482136768
ONEWEB-0653             
1 55815U 23029V   25361.20353760  .00000264  00000+0  67777-3 0  9991
2 55815  87.9001 323.9787 0001971  82.8153 277.3201 13.14501391136803
ONEWEB-0654             
1 55816U 23029W   25361.19878041  .00000233  00000+0  59388-3 0  9999
2 55816  87.8998 323.9795 0001908  92.4013 267.7335 13.14501554136823
ONEWEB-0656             
1 55817U 23029X   25361.16042398  .00000077  00000+0  15670-3 0  9997
2 55817  87.9223 308.7374 0001981  90.9906 269.1454 13.20772033138442
ONEWEB-0657             
1 55818U 23029Y   25361.19630172  .00000137  00000+0  31054-3 0  9995
2 55818  87.9198 339.2038 0001378 108.1623 251.9660 13.19727830136223
ONEWEB-0658             
1 55819U 23029Z   25361.19157181  .00000085  00000+0  17898-3 0  9992
2 55819  87.9218 339.1611 0001648  70.8137 289.3174 13.19726590136236
ONEWEB-0660             
1 55820U 23029AA  25361.17657279 -.00000150  00000+0 -43966-3 0  9995
2 55820  87.9011 323.9640 0002032  75.1569 284.9786 13.14501359136809
ONEWEB-0661             
1 55821U 23029AB  25361.13534756  .00000173  00000+0  43313-3 0  9995
2 55821  87.9002 324.0363 0002094  78.0821 282.0544 13.14500979136780
ONEWEB-0662             
1 55822U 23029AC  25361.17023918 -.00000127  00000+0 -37798-3 0  9994
2 55822  87.8998 324.0355 0002038  75.1133 285.0223 13.14502105136833
ONEWEB-0663             
1 55823U 23029AD  25361.13055303  .00000041  00000+0  67916-4 0  9993
2 55823  87.9231 308.8111 0002008  67.0552 293.0794 13.20854571138431
ONEWEB-0664             
1 55824U 23029AE  25361.14779521 -.00000012  00000+0 -62364-4 0  9992
2 55824  87.9215 308.8111 0002190  82.2600 277.8782 13.20770644138434
ONEWEB-0665             
1 55825U 23029AF  25360.90382191  .00000193  00000+0  48704-3 0  9998
2 55825  87.9006 324.0602 0001992  71.1754 288.9592 13.14501273136774
ONEWEB-0666             
1 55826U 23029AG  25361.14147529  .00001174  00000+0  28546-2 0  9991
2 55826  87.9217 308.8010 0001513 100.5034 259.6270 13.20779592138441
ONEWEB-0667             
1 55827U 23029AH  25361.13517255 -.00000010  00000+0 -56376-4 0  9992
2 55827  87.9224 308.7367 0001964  76.2750 283.8602 13.20772428138436
ONEWEB-0669             
1 55828U 23029AJ  25360.90312303  .00002531  00000+0  61879-2 0  9994
2 55828  87.9213 308.8163 0002351  95.7347 264.4054 13.20798798138400
ONEWEB-0670             
1 55829U 23029AK  25361.18610122  .00000115  00000+0  27686-3 0  9991
2 55829  87.9005 324.0249 0002154  79.7193 280.4180 13.14504523136834
ONEWEB-0671             
1 55830U 23029AL  25361.18682484  .00000130  00000+0  29124-3 0  9999
2 55830  87.9206 339.2029 0001993  80.9396 279.1962 13.19727570136211
ONEWEB-0672             
1 55831U 23029AM  25361.12570279  .00000154  00000+0  34664-3 0  9993
2 55831  87.9215 308.7530 0001755  86.9851 273.1483 13.20771502138432
ONEWEB-0673             
1 55832U 23029AN  25360.86066444 -.00000062  00000+0 -18634-3 0  9997
2 55832  87.9219 339.2494 0001936  82.7200 277.4153 13.19726890136176
ONEWEB-0674             
1 55833U 23029AP  25360.46931814 -.00000134  00000+0 -39515-3 0  9997
2 55833  87.8997 324.1447 0002249  81.8713 278.2672 13.14501230136727
ONEWEB-0675             
1 55834U 23029AQ  25361.17894493 -.00000027  00000+0 -98792-4 0  9992
2 55834  87.9198 339.2118 0001525  87.1637 272.9670 13.19725536136231
ONEWEB-0720             
1 55835U 23029AR  25361.17104241  .00000003  00000+0 -23847-4 0  9990
2 55835  87.9201 339.2116 0001873  74.1872 285.9467 13.19725558136151
ONEWEB-0537             
1 56046U 23043A   25361.13747566 -.00000022  00000+0 -91466-4 0  9994
2 56046  87.9048 263.0290 0001444  79.1924 280.9369 13.16593293136320
ONEWEB-0538             
1 56047U 23043B   25361.13113272  .00000026  00000+0  34208-4 0  9999
2 56047  87.9045 263.0342 0001375  67.3006 292.8270 13.16592808136334
ONEWEB-0546             
1 56048U 23043C   25361.11847144 -.00000004  00000+0 -44317-4 0  9990
2 56048  87.9059 263.0299 0001312  99.4274 260.7005 13.16592602136326
ONEWEB-0547             
1 56049U 23043D   25360.81249079  .00000068  00000+0  13282-3 0  9994
2 56049  87.9226 278.3552 0001704  70.6206 289.5112 13.21827019135455
ONEWEB-0548             
1 56050U 23043E   25361.14301242  .00000003  00000+0 -26145-4 0  9997
2 56050  87.9041 263.0293 0002091  79.0222 281.1144 13.16595526136325
ONEWEB-0549             
1 56051U 23043F   25361.03216889  .00000203  00000+0  46080-3 0  9998
2 56051  87.9225 278.3250 0001630  66.6643 293.4662 13.21827243135486
ONEWEB-0550             
1 56052U 23043G   25361.17039688  .00000122  00000+0  26387-3 0  9992
2 56052  87.9226 278.2927 0001785  78.8063 281.3271 13.21824936135501
ONEWEB-0551             
1 56053U 23043H   25361.11355800  .00000179  00000+0  44234-3 0  9997
2 56053  87.9005 293.5714 0001771  68.6871 291.4448 13.15547205133779
ONEWEB-0552             
1 56054U 23043J   25361.16545014  .00000023  00000+0  23376-4 0  9994
2 56054  87.9227 278.3021 0001860  67.7397 292.3934 13.21827941135508
ONEWEB-0553             
1 56055U 23043K   25360.97280772  .00000003  00000+0 -25909-4 0  9993
2 56055  87.9048 263.0648 0001583  87.2553 272.8759 13.16592615136318
ONEWEB-0554             
1 56056U 23043L   25361.11214777  .00000049  00000+0  94899-4 0  9996
2 56056  87.9040 263.0498 0001860  78.1833 281.9507 13.16594417136316
